LEMUR-2-FINNIAN         
1 66782U 25276DX  26189.02019376  .00002186  00000+0  17772-3 0  9998
2 66782  97.5341 259.3594 0007985  26.3338 333.8291 15.00562767 23127
LEMUR-2-STARLIGHT       
1 66783U 25276DY  26189.46190961  .00003978  00000+0  32971-3 0  9995
2 66783  97.5226 259.3732 0014768  66.9055 293.3724 14.99299988 33386
LEMUR-2-TARTIFLETTE     
1 66784U 25276DZ  26189.46024922  .00003236  00000+0  26924-3 0  9997
2 66784  97.5227 259.3794 0013780  74.7429 285.5317 14.99288887 33388
LEMUR-2-VUKASIN         
1 66785U 25276EA  26189.43604113  .00002983  00000+0  24127-3 0  9992
2 66785  97.5243 259.7023 0004075  74.7195 285.4479 15.00504973 33336
LEMUR-2-HOTSPUR-TOM     
1 66786U 25276EB  26189.45422343  .00003497  00000+0  29126-3 0  9993
2 66786  97.5218 259.3502 0013922  65.8850 294.3828 14.99196768 33318
LEMUR-2-MYRA            
1 66787U 25276EC  26189.46811372  .00003728  00000+0  29914-3 0  9991
2 66787  97.5214 259.6537 0018539  74.6682 285.6589 15.00537407 33405
LEMUR-2 FIKRETDENGIZ    
1 67363U 26004A   26189.44545823  .00001967  00000+0  21745-3 0  9992
2 67363  97.8025 187.6788 0010454  74.6204 285.6167 14.88484569 26448
TWILIGHT-1 OBJECT B     
1 67364U 26004B   26189.27759795  .00001445  00000+0  16411-3 0  9994
2 67364  97.8068 187.5184 0010097  65.6176 294.6093 14.87777388 26425
LEMUR-2-MARIO-SOUSA     
1 67365U 26004C   26189.42626559  .00002615  00000+0  28573-3 0  9995
2 67365  97.7999 187.6551 0010149  75.7007 284.5336 14.88692272 26450
LEMUR-2-SONNENBLUME     
1 67367U 26004E   26189.42790359  .00001743  00000+0  19363-3 0  9995
2 67367  97.7993 187.6326 0009678  77.0049 283.2248 14.88431677 26450
LEMUR-2-WOBLER          
1 67368U 26004F   26189.41828619  .00002560  00000+0  28000-3 0  9992
2 67368  97.8047 187.7666 0009886  69.2439 290.9837 14.88667919 26456
LEMUR-2-GRAM-E-SUE      
1 67370U 26004H   26188.93940678  .00001829  00000+0  20232-3 0  9997
2 67370  97.7979 187.1679 0008836  80.8974 279.3242 14.88567504 26389
LEMUR-2-KATIE           
1 67387U 26004AA  26189.30727682  .00002282  00000+0  24116-3 0  9994
2 67387  97.8044 188.0585 0004033  49.1270 311.0297 14.90210933 26455
LEMUR-2-HCS-BAZUS       
1 67388U 26004AB  26189.44000739  .00001335  00000+0  14331-3 0  9993
2 67388  97.8032 188.1688 0003474  49.1715 310.9803 14.90238828 26476
